JILIN-1 GAOFEN 03D15    
1 51839U 22019R   26129.23754296  .00266384  27905-4  90465-3 0  9991
2 51839  97.3637 224.4323 0005061 234.6703 125.4097 15.89837703233917
JILIN-1 GAOFEN 03D12    
1 51841U 22019T   26129.53011580  .00261317  27256-4  83850-3 0  9999
2 51841  97.3605 224.6883 0005619 222.7152 137.3685 15.90955540233965
2022-023F               
1 51951U 22023F   26129.73753914  .00016892  00000+0  68052-3 0  9998
2 51951  63.4485  44.1882 0127593 344.0277  15.6827 15.17760387231879
MERIDIAN 10             
1 52145U 22030A   26129.09061918  .00000246  00000+0  00000+0 0  9998
2 52145  62.6773 144.9880 6773380 272.8849  17.7301  2.00616584 30248
OMNI-L1                 
1 52157U 22033A   26129.50875647  .00001438  00000+0  18502-3 0  9996
2 52157  97.8394 209.4410 0006376  60.7767 299.4083 14.82604778221723
ENMAP                   
1 52159U 22033C   26129.49724140  .00000141  00000+0  28439-4 0  9998
2 52159  97.9781 212.2960 0001479  85.6292 274.5086 14.74954854220951
ARCSAT-1                
1 52161U 22033E   26129.21009649  .00010554  00000+0  17285-3 0  9996
2 52161  97.2730 220.9368 0004208   0.9876 359.1384 15.52661617229656
GLOBAL-18               
1 52196U 22034B   26129.25873629  .00017289  00000+0  37285-3 0  9990
2 52196  52.9822  82.4443 0005768 116.9091 243.2504 15.44678355230947
GAOFEN-3 03             
1 52200U 22035A   26129.51679619  .00000061  00000+0  31776-4 0  9999
2 52200  98.4079 138.6573 0001068  70.1556 289.9749 14.42218772215273
DAQI-1                  
1 52257U 22039A   26129.49905167  .00000179  00000+0  49105-4 0  9997
2 52257  98.1468  69.1556 0004440  32.4128 327.7343 14.57653773216302
BRO-6                   
1 52422U 22047AE  26129.51396789  .00023009  00000+0  43720-3 0  9990
2 52422  97.3389 219.9013 0004946 195.1235 164.9868 15.48262715225169
JILIN-1 GAOFEN 3D27     
1 52444U 22048B   26129.49525470  .00063607  00000+0  57602-3 0  9995
2 52444  97.5669 240.1952 0005546 179.1190 181.0081 15.67853824223403
JILIN-1 GAOFEN 3D28     
1 52445U 22048C   26129.49088433  .00071202  00000+0  59317-3 0  9994
2 52445  97.5610 240.2215 0004246 193.9061 166.2084 15.69878306223446
VIGORIDE-3              
1 52760U 22057AE  26129.35902735  .00004346  00000+0  16750-3 0  9998
2 52760  97.6550 268.3306 0007104 258.4355 101.6085 15.26872793219234
ION SCV-006             
1 52761U 22057AF  26129.36434766  .00008565  00000+0  18657-3 0  9999
2 52761  97.6055 276.1655 0016411 252.8490 107.0961 15.44399595220125
SHERPA-AC1              
1 52763U 22057AH  26129.43448505  .00006271  00000+0  18293-3 0  9993
2 52763  97.6640 277.0753 0006781 222.3709 137.7011 15.35716826219753
OMNI-L2                 
1 52771U 22057AR  26129.14662953  .00001062  00000+0  14228-3 0  9992
2 52771  97.4734 194.1271 0008389  93.8093 266.4080 14.81265617214614
STEP CUBE LAB-II        
1 52897U 22065D   26129.50079823  .00000704  00000+0  14588-3 0  9999
2 52897  98.2176 273.5342 0009373 139.6760 220.5138 14.63240917205843
RANDEV                  
1 52898U 22065E   26129.51206762  .00000734  00000+0  15047-3 0  9999
2 52898  98.2164 273.8799 0008694 139.5117 220.6733 14.63626170205593
SNUGLITE-II             
1 52899U 22065F   26129.35495377  .00000786  00000+0  15813-3 0  9992
2 52899  98.2150 274.2675 0008380 139.1494 221.0338 14.64274197205318
MIMAN                   
1 52900U 22065G   26129.37489219  .00000468  00000+0  10323-3 0  9993
2 52900  98.2207 272.0653 0008464 140.6060 219.5758 14.61800077204771
STARLINK-4362           
1 53043U 22077A   26129.45394412 -.00000934  00000+0 -60626-4 0  9996
2 53043  97.5156 309.8240 0001274  97.8159 262.3213 15.05661548210057
LARES-2                 
1 53105U 22080A   26127.16150228 -.00000008  00000+0  00000+0 0  9996
2 53105  70.1704 319.3995 0005357 343.8104  16.2342  6.38965197 89040
GREENCUBE (IO-117)      
1 53109U 22080E   26129.43083360 -.00000003  00000+0  00000+0 0  9999
2 53109  70.1440 311.7298 0008865 298.7662  61.2107  6.42583325 89578
STARLINK-4410           
1 53204U 22084R   26129.50001156  .00088427  00000+0  47867-2 0  9990
2 53204  97.5980 190.1029 0000791 124.5543 119.3490 15.14242472  5810
COSMOS 2558             
1 53323U 22089A   26129.49168650  .00063055  00000+0  56040-3 0  9992
2 53323  97.2241 232.2040 0002626 179.1800 180.9467 15.68333109211758
TECMS                   
1 53346U 22090A   26129.48512863  .00002823  00000+0  12878-3 0  9994
2 53346  97.3153 198.6848 0002083 359.2799   0.8434 15.21418485208921
