OBJECT_NAME,OBJECT_ID,EPOCH,MEAN_MOTION,ECCENTRICITY,INCLINATION,RA_OF_ASC_NODE,ARG_OF_PERICENTER,MEAN_ANOMALY,EPHEMERIS_TYPE,CLASSIFICATION_TYPE,NORAD_CAT_ID,ELEMENT_SET_NO,REV_AT_EPOCH,BSTAR,MEAN_MOTION_DOT,MEAN_MOTION_DDOT
JILIN-1 GAOFEN 03D15,2022-019R,2026-05-09T05:42:03.711744,15.89837703,.00050618,97.3637,224.4323,234.6703,125.4097,0,U,51839,999,23391,.90465334E-3,.266384E-2,.27904557E-4
JILIN-1 GAOFEN 03D12,2022-019T,2026-05-09T12:43:22.005120,15.90955540,.0005619,97.3605,224.6883,222.7152,137.3685,0,U,51841,999,23396,.8385E-3,.261317E-2,.27256E-4
2022-023F,2022-023F,2026-05-09T17:42:03.381696,15.17760387,.0127593,63.4485,44.1882,344.0277,15.6827,0,U,51951,999,23187,.68052E-3,.16892E-3,0
MERIDIAN 10,2022-030A,2026-05-09T02:10:29.497152,2.00616584,.677338,62.6773,144.9880,272.8849,17.7301,0,U,52145,999,3024,0,.246E-5,0
OMNI-L1,2022-033A,2026-05-09T12:12:36.559008,14.82604778,.0006376,97.8394,209.4410,60.7767,299.4083,0,U,52157,999,22172,.18502E-3,.1438E-4,0
ENMAP,2022-033C,2026-05-09T11:56:01.656960,14.74954854,.0001479,97.9781,212.2960,85.6292,274.5086,0,U,52159,999,22095,.28439E-4,.141E-5,0
ARCSAT-1,2022-033E,2026-05-09T05:02:32.336736,15.52661617,.00042086,97.2730,220.9368,0.9876,359.1384,0,U,52161,999,22965,.17285478E-3,.10554E-3,0
GLOBAL-18,2022-034B,2026-05-09T06:12:34.815456,15.44678355,.00057683,52.9822,82.4443,116.9091,243.2504,0,U,52196,999,23094,.37285482E-3,.17289E-3,0
GAOFEN-3 03,2022-035A,2026-05-09T12:24:11.190816,14.42218772,.0001068,98.4079,138.6573,70.1556,289.9749,0,U,52200,999,21527,.31776E-4,.61E-6,0
DAQI-1,2022-039A,2026-05-09T11:58:38.064288,14.57653773,.000444,98.1468,69.1556,32.4128,327.7343,0,U,52257,999,21630,.49105E-4,.179E-5,0
BRO-6,2022-047AE,2026-05-09T12:20:06.825696,15.48262715,.0004946,97.3389,219.9013,195.1235,164.9868,0,U,52422,999,22516,.4372E-3,.23009E-3,0
JILIN-1 GAOFEN 3D27,2022-048B,2026-05-09T11:53:10.006080,15.67853824,.0005546,97.5669,240.1952,179.1190,181.0081,0,U,52444,999,22340,.57602E-3,.63607E-3,0
JILIN-1 GAOFEN 3D28,2022-048C,2026-05-09T11:46:52.406112,15.69878306,.0004246,97.5610,240.2215,193.9061,166.2084,0,U,52445,999,22344,.59317E-3,.71202E-3,0
VIGORIDE-3,2022-057AE,2026-05-09T08:36:59.963040,15.26872793,.0007104,97.6550,268.3306,258.4355,101.6085,0,U,52760,999,21923,.1675E-3,.4346E-4,0
ION SCV-006,2022-057AF,2026-05-09T08:44:39.637824,15.44399595,.0016411,97.6055,276.1655,252.8490,107.0961,0,U,52761,999,22012,.18657E-3,.8565E-4,0
SHERPA-AC1,2022-057AH,2026-05-09T10:25:39.508320,15.35716826,.0006781,97.6640,277.0753,222.3709,137.7011,0,U,52763,999,21975,.18293E-3,.6271E-4,0
OMNI-L2,2022-057AR,2026-05-09T03:31:08.791392,14.81265617,.00083891,97.4734,194.1271,93.8093,266.4080,0,U,52771,999,21461,.14228377E-3,.1062E-4,0
STEP CUBE LAB-II,2022-065D,2026-05-09T12:01:08.967072,14.63240917,.0009373,98.2176,273.5342,139.6760,220.5138,0,U,52897,999,20584,.14588E-3,.704E-5,0
RANDEV,2022-065E,2026-05-09T12:17:22.642368,14.63626170,.0008694,98.2164,273.8799,139.5117,220.6733,0,U,52898,999,20559,.15047E-3,.734E-5,0
SNUGLITE-II,2022-065F,2026-05-09T08:31:08.005728,14.64274197,.000838,98.2150,274.2675,139.1494,221.0338,0,U,52899,999,20531,.15813E-3,.786E-5,0
MIMAN,2022-065G,2026-05-09T08:59:50.685216,14.61800077,.0008464,98.2207,272.0653,140.6060,219.5758,0,U,52900,999,20477,.10323E-3,.468E-5,0
STARLINK-4362,2022-077A,2026-05-09T10:53:40.771968,15.05661548,.0001274,97.5156,309.8240,97.8159,262.3213,0,U,53043,999,21005,-.60626E-4,-.934E-5,0
LARES-2,2022-080A,2026-05-07T03:52:33.796992,6.38965197,.0005357,70.1704,319.3995,343.8104,16.2342,0,U,53105,999,8904,0,-.8E-7,0
GREENCUBE (IO-117),2022-080E,2026-05-09T10:20:24.023040,6.42583325,.0008865,70.1440,311.7298,298.7662,61.2107,0,U,53109,999,8957,0,-.3E-7,0
STARLINK-4410,2022-084R,2026-05-09T12:00:00.998784,15.14242472,.0000791,97.5980,190.1029,124.5543,119.3490,0,U,53204,999,581,.47867E-2,.88427E-3,0
COSMOS 2558,2022-089A,2026-05-09T11:48:01.713600,15.68333109,.0002626,97.2241,232.2040,179.1800,180.9467,0,U,53323,999,21175,.5604E-3,.63055E-3,0
TECMS,2022-090A,2026-05-09T11:38:35.113632,15.21418485,.0002083,97.3153,198.6848,359.2799,0.8434,0,U,53346,999,20892,.12878E-3,.2823E-4,0
